{"fetched_at":"2026-03-29T16:36:15Z","count":15609,"tles":[{"name":"STARLINK-5245","line1":"1 54168U 22141M   26087.81530201 -.00001205  00000+0 -57644-4 0  9996","line2":"2 54168  53.2176 278.3548 0001329  93.2593 266.8552 15.08837235188747","category":"Starlink"}]}