{
  "norad_id": 54168,
  "name": "STARLINK-5245",
  "history": [
    {
      "epoch": "2026-03-28T19:34:02.093664",
      "apogee_km": 540.6714354394189,
      "perigee_km": 538.8322455122898,
      "latitude_deg": 52.15495923800061,
      "longitude_deg": 35.06899296003394,
      "semi_major_axis_km": 6917.8888404758545,
      "eccentricity": 0.00013293,
      "inclination_deg": 53.2176,
      "raan_deg": 278.3548,
      "arg_perigee_deg": 93.2593,
      "mean_anomaly_deg": 266.8552,
      "mean_motion_rev_day": 15.08837235
    }
  ]
}